[
    {
        "Altitude(m)": 607897.6336178443,
        "Argument of Periapsis(deg)": 0.0,
        "Eccentricity": 0.0,
        "Inclination(deg)": 60.0,
        "Latitude(deg)": -14.293041548519703,
        "Longitude(deg)": -143.381265568026,
        "Mean Anomaly(deg)": -16.363600000000037,
        "RAAN(deg)": 325.0,
        "Satellite Name": "Test1 1451",
        "Satellite Number": 1451,
        "Semi-Major Axis(m)": 6980739.136638005,
        "Time(s)": 0
    },
    {
        "Altitude(m)": 607750.8343207543,
        "Argument of Periapsis(deg)": 0.00010418945913296404,
        "Eccentricity": 0.0,
        "Inclination(deg)": 60.0,
        "Latitude(deg)": -13.758883364558207,
        "Longitude(deg)": -143.09419570735588,
        "Mean Anomaly(deg)": -15.743493854538185,
        "RAAN(deg)": 324.99957995086027,
        "Satellite Name": "Test1 1451",
        "Satellite Number": 1451,
        "Semi-Major Axis(m)": 6980739.136638005,
        "Time(s)": 10
    }
]